[{"OBJECT_NAME":"QIANFAN-39","OBJECT_ID":"2024-232D","EPOCH":"2026-03-09T21:25:16.059072","MEAN_MOTION":14.25440879,"ECCENTRICITY":0.00171102,"INCLINATION":89.0064,"RA_OF_ASC_NODE":27.3413,"ARG_OF_PERICENTER":145.5992,"MEAN_ANOMALY":214.6313,"EPHEMERIS_TYPE":0,"CLASSIFICATION_TYPE":"U","NORAD_CAT_ID":62240,"ELEMENT_SET_NO":999,"REV_AT_EPOCH":11380,"BSTAR":0.00022622412,"MEAN_MOTION_DOT":5.49e-6,"MEAN_MOTION_DDOT":0},{"OBJECT_NAME":"SAPPHIRE (NO-45)","OBJECT_ID":"2001-043D","EPOCH":"2026-03-09T22:05:38.519808","MEAN_MOTION":14.31264507,"ECCENTRICITY":0.00088058,"INCLINATION":67.0559,"RA_OF_ASC_NODE":149.4844,"ARG_OF_PERICENTER":266.6628,"MEAN_ANOMALY":93.3466,"EPHEMERIS_TYPE":0,"CLASSIFICATION_TYPE":"U","NORAD_CAT_ID":26932,"ELEMENT_SET_NO":999,"REV_AT_EPOCH":27618,"BSTAR":8.3024891e-5,"MEAN_MOTION_DOT":1.37e-6,"MEAN_MOTION_DDOT":0}]
